QIANFAN-73              
1 63159U 25046A   25344.23530507  .00000147  00000+0  20874-3 0  9999
2 63159  88.9759 320.2818 0016345 126.2348 234.0317 13.50976446 47074
QIANFAN-74              
1 63160U 25046B   25344.21869955  .00000166  00000+0  23870-3 0  9991
2 63160  88.9760 320.1722 0001985  79.6785 280.4590 13.50978825 47139
QIANFAN-75              
1 63161U 25046C   25344.20598719  .00000192  00000+0  27841-3 0  9999
2 63161  88.9761 320.4071 0017379 129.3996 230.8697 13.50977677 47009
QIANFAN-76              
1 63162U 25046D   25344.20259736  .00000116  00000+0  16108-3 0  9993
2 63162  88.9759 320.3884 0014915 129.1768 231.0711 13.50969872 47015
QIANFAN-77              
1 63163U 25046E   25344.24883985  .00000437  00000+0  30805-3 0  9993
2 63163  88.9762 318.4107 0017001  88.0480 272.2644 13.96086119 48106
QIANFAN-78              
1 63164U 25046F   25344.24350744  .00000140  00000+0  19742-3 0  9994
2 63164  88.9759 320.2479 0016238 131.5993 228.6552 13.50976603 47096
QIANFAN-79              
1 63165U 25046G   25344.19810818  .00000168  00000+0  24130-3 0  9999
2 63165  88.9763 320.3600 0015974 130.0526 230.2029 13.50978202 47030
QIANFAN-80              
1 63166U 25046H   25344.21462106  .00000174  00000+0  25083-3 0  9991
2 63166  88.9761 320.0652 0014841 133.4990 226.7397 13.50975779 47198
